OBJECT_NAME,OBJECT_ID,EPOCH,MEAN_MOTION,ECCENTRICITY,INCLINATION,RA_OF_ASC_NODE,ARG_OF_PERICENTER,MEAN_ANOMALY,EPHEMERIS_TYPE,CLASSIFICATION_TYPE,NORAD_CAT_ID,ELEMENT_SET_NO,REV_AT_EPOCH,BSTAR,MEAN_MOTION_DOT,MEAN_MOTION_DDOT
STARLINK-37353,2026-111K,2026-06-13T17:25:04.415520,15.80817314,.0003789,53.1569,168.9578,348.1205,11.9728,0,U,69157,999,371,.18247002E-2,.374586E-2,0
STARLINK-37363,2026-111L,2026-06-14T04:00:01.998720,15.75707385,.0000714,53.1590,166.7393,92.7811,261.6189,0,U,69158,999,506,-.1941E-1,-.2641084E-1,0
STARLINK-37343,2026-111M,2026-06-14T04:00:01.998720,15.49285614,.0000826,53.1595,167.7628,94.5055,115.0991,0,U,69159,999,506,.38492E-3,.20999E-3,0
STARLINK-37328,2026-111N,2026-06-13T17:21:52.143552,15.80975520,.00028828,53.1569,168.9418,21.7732,338.3413,0,U,69160,999,371,.21155205E-2,.440945E-2,0
STARLINK-37311,2026-111P,2026-06-13T17:38:38.292288,15.78189461,.00021626,53.1570,169.0196,72.3858,287.7399,0,U,69161,999,371,.2123048E-2,.387488E-2,0
STARLINK-36286,2026-111Q,2026-06-14T01:13:18.758784,15.78761169,.0002062,53.1564,167.4332,147.7855,212.3293,0,U,69162,999,376,.26694E-2,.507206E-2,0
STARLINK-37196,2026-111R,2026-06-14T04:19:38.435808,15.78347238,.0001405,53.1574,166.8193,83.3762,276.7419,0,U,69163,999,378,.15309E-2,.277563E-2,0
STARLINK-36288,2026-111S,2026-06-14T04:00:01.998720,15.69809064,.0001153,53.1594,166.9218,111.0273,153.6659,0,U,69164,999,506,-.22936E-1,-.2447235E-1,0
STARLINK-37445,2026-111T,2026-06-14T04:00:01.998720,15.67331596,.0001015,53.1595,166.9588,104.5940,141.6566,0,U,69165,999,506,-.26825E-1,-.256396E-1,0
STARLINK-37491,2026-111U,2026-06-13T17:39:00.715680,15.78158500,.00016039,53.1570,169.0202,54.0313,306.0858,0,U,69166,999,371,.13866843E-2,.248378E-2,0
STARLINK-37474,2026-111V,2026-06-13T17:35:20.133888,15.78186445,.0001202,53.1571,169.0031,47.8913,312.2211,0,U,69167,999,371,.21493368E-2,.392486E-2,0
STARLINK-37469,2026-111W,2026-06-14T04:00:01.998720,15.49288590,.0000829,53.1589,167.9520,95.2700,20.1562,0,U,69168,999,506,.28346E-3,.15336E-3,0
STARLINK-37515,2026-111X,2026-06-14T04:00:01.998720,15.72242404,.0000739,53.1589,166.8408,86.1318,218.1438,0,U,69169,999,506,-.2213E-1,-.2595251E-1,0
STARLINK-37437,2026-111Y,2026-06-13T06:48:25.085088,15.78119735,.0001518,53.1583,171.1764,97.1544,262.9650,0,U,69170,999,364,.13804E-2,.24678E-2,0
STARLINK-37392,2026-111Z,2026-06-14T04:00:01.998720,15.71540917,.0000797,53.1592,166.7731,89.4743,246.8176,0,U,69171,999,506,-.23099E-1,-.2624106E-1,0
STARLINK-37472,2026-111AA,2026-06-14T04:00:01.998720,15.56909653,.0001467,53.1596,166.9950,92.2761,134.2083,0,U,69172,999,506,-.40007E-1,-.2593212E-1,0
STARLINK-37461,2026-111AB,2026-06-14T04:00:01.998720,15.49288467,.0001213,53.1588,167.8595,93.1658,67.5510,0,U,69173,999,506,.34042E-3,.18516E-3,0
STARLINK-37333,2026-111AC,2026-06-14T04:00:01.998720,15.67274905,.0001416,53.1590,166.9230,99.1921,164.1213,0,U,69174,999,506,-.2605E-1,-.2494929E-1,0
STARLINK-37385,2026-111AD,2026-06-14T04:00:01.998720,15.49287883,.000116,53.1592,167.7726,89.2971,114.2434,0,U,69175,999,506,.33154E-3,.18019E-3,0
STARLINK-37414,2026-111AE,2026-06-14T04:00:01.998720,15.70684572,.0000852,53.1594,166.7818,71.7624,260.2876,0,U,69176,999,506,-.16369E-1,-.180642E-1,0
STRIX-7,2026-112A,2026-06-14T04:16:45.943392,15.01424543,.0023414,44.9058,208.2528,29.9075,330.3130,0,U,69177,999,342,.20913E-3,.2522E-4,0
SHENZHOU-23 (SZ-23),2026-113A,2026-06-13T21:44:02.182848,15.60676113,.00077895,41.4695,341.9716,50.3492,309.8033,0,U,69180,999,29294,.28411739E-3,.24016E-3,0
STARLINK-37380,2026-114A,2026-06-14T04:18:33.527808,15.78105089,.0001071,53.1580,217.5200,72.3420,287.7718,0,U,69182,999,429,.8565E-3,.151039E-2,0
STARLINK-37089,2026-114B,2026-06-13T14:36:25.829856,15.78073048,.0001362,53.1585,220.3575,78.6520,281.4654,0,U,69183,999,420,.60182E-3,.105204E-2,0
STARLINK-37428,2026-114C,2026-06-14T04:15:11.376864,15.78116562,.0001482,53.1581,217.5043,45.4916,314.6227,0,U,69184,999,429,.1032E-2,.182899E-2,0
STARLINK-37237,2026-114D,2026-06-14T04:11:13.458048,15.78087175,.0001068,53.1582,217.4854,30.9528,329.1556,0,U,69185,999,429,.12538E-2,.223129E-2,0
STARLINK-37365,2026-114E,2026-06-14T04:11:40.616160,15.78126429,.000134,53.1582,217.4874,37.2964,322.8151,0,U,69186,999,429,.12202E-2,.217359E-2,0
STARLINK-37209,2026-114F,2026-06-14T04:10:33.911040,15.78126613,.0002074,53.1581,217.4824,35.3028,324.8131,0,U,69187,999,429,.11364E-2,.202026E-2,0
STARLINK-37359,2026-114G,2026-06-14T04:09:55.410336,15.78141987,.0001066,53.1583,217.4794,106.2758,253.8381,0,U,69188,999,429,.12438E-2,.22186E-2,0
