STARLINK-37353          
1 69157U 26111K   26164.72574555  .00374586  00000+0  18247-2 0  9994
2 69157  53.1569 168.9578 0003789 348.1205  11.9728 15.80817314  3710
STARLINK-37363          
1 69158U 26111L   26165.16668980 -.02641084  00000+0 -19410-1 0  9996
2 69158  53.1590 166.7393 0000714  92.7811 261.6189 15.75707385  5061
STARLINK-37343          
1 69159U 26111M   26165.16668980  .00020999  00000+0  38492-3 0  9992
2 69159  53.1595 167.7628 0000826  94.5055 115.0991 15.49285614  5063
STARLINK-37328          
1 69160U 26111N   26164.72352018  .00440945  00000+0  21155-2 0  9991
2 69160  53.1569 168.9418 0002882  21.7732 338.3413 15.80975520  3710
STARLINK-37311          
1 69161U 26111P   26164.73516542  .00387488  00000+0  21230-2 0  9993
2 69161  53.1570 169.0196 0002162  72.3858 287.7399 15.78189461  3718
STARLINK-36286          
1 69162U 26111Q   26165.05091156  .00507206  00000+0  26694-2 0  9990
2 69162  53.1564 167.4332 0002062 147.7855 212.3293 15.78761169  3762
STARLINK-37196          
1 69163U 26111R   26165.18030597  .00277563  00000+0  15309-2 0  9998
2 69163  53.1574 166.8193 0001405  83.3762 276.7419 15.78347238  3787
STARLINK-36288          
1 69164U 26111S   26165.16668980 -.02447235  00000+0 -22936-1 0  9992
2 69164  53.1594 166.9218 0001153 111.0273 153.6659 15.69809064  5067
STARLINK-37445          
1 69165U 26111T   26165.16668980 -.02563960  00000+0 -26825-1 0  9998
2 69165  53.1595 166.9588 0001015 104.5940 141.6566 15.67331596  5066
STARLINK-37491          
1 69166U 26111U   26164.73542495  .00248378  00000+0  13867-2 0  9995
2 69166  53.1570 169.0202 0001603  54.0313 306.0858 15.78158500  3718
STARLINK-37474          
1 69167U 26111V   26164.73287192  .00392486  00000+0  21493-2 0  9990
2 69167  53.1571 169.0031 0001202  47.8913 312.2211 15.78186445  3712
STARLINK-37469          
1 69168U 26111W   26165.16668980  .00015336  00000+0  28346-3 0  9998
2 69168  53.1589 167.9520 0000829  95.2700  20.1562 15.49288590  5063
STARLINK-37515          
1 69169U 26111X   26165.16668980 -.02595251  00000+0 -22130-1 0  9995
2 69169  53.1589 166.8408 0000739  86.1318 218.1438 15.72242404  5062
STARLINK-37437          
1 69170U 26111Y   26164.28362367  .00246780  00000+0  13804-2 0  9994
2 69170  53.1583 171.1764 0001518  97.1544 262.9650 15.78119735  3642
STARLINK-37392          
1 69171U 26111Z   26165.16668980 -.02624106  00000+0 -23099-1 0  9995
2 69171  53.1592 166.7731 0000797  89.4743 246.8176 15.71540917  5065
STARLINK-37472          
1 69172U 26111AA  26165.16668980 -.02593212  00000+0 -40007-1 0  9997
2 69172  53.1596 166.9950 0001467  92.2761 134.2083 15.56909653  5068
STARLINK-37461          
1 69173U 26111AB  26165.16668980  .00018516  00000+0  34042-3 0  9997
2 69173  53.1588 167.8595 0001213  93.1658  67.5510 15.49288467  5067
STARLINK-37333          
1 69174U 26111AC  26165.16668980 -.02494929  00000+0 -26050-1 0  9996
2 69174  53.1590 166.9230 0001416  99.1921 164.1213 15.67274905  5067
STARLINK-37385          
1 69175U 26111AD  26165.16668980  .00018019  00000+0  33154-3 0  9990
2 69175  53.1592 167.7726 0001160  89.2971 114.2434 15.49287883  5060
STARLINK-37414          
1 69176U 26111AE  26165.16668980 -.01806420  00000+0 -16369-1 0  9992
2 69176  53.1594 166.7818 0000852  71.7624 260.2876 15.70684572  5064
STRIX-7                 
1 69177U 26112A   26165.17830953  .00002522  00000+0  20913-3 0  9996
2 69177  44.9058 208.2528 0023414  29.9075 330.3130 15.01424543  3426
SHENZHOU-23 (SZ-23)     
1 69180U 26113A   26164.90558082  .00024016  00000+0  28412-3 0  9995
2 69180  41.4695 341.9716 0007789  50.3492 309.8033 15.60676113292948
STARLINK-37380          
1 69182U 26114A   26165.17955472  .00151039  00000+0  85650-3 0  9995
2 69182  53.1580 217.5200 0001071  72.3420 287.7718 15.78105089  4293
STARLINK-37089          
1 69183U 26114B   26164.60863229  .00105204  00000+0  60182-3 0  9997
2 69183  53.1585 220.3575 0001362  78.6520 281.4654 15.78073048  4209
STARLINK-37428          
1 69184U 26114C   26165.17721501  .00182899  00000+0  10320-2 0  9990
2 69184  53.1581 217.5043 0001482  45.4916 314.6227 15.78116562  4291
STARLINK-37237          
1 69185U 26114D   26165.17446132  .00223129  00000+0  12538-2 0  9990
2 69185  53.1582 217.4854 0001068  30.9528 329.1556 15.78087175  4293
STARLINK-37365          
1 69186U 26114E   26165.17477565  .00217359  00000+0  12202-2 0  9991
2 69186  53.1582 217.4874 0001340  37.2964 322.8151 15.78126429  4290
STARLINK-37209          
1 69187U 26114F   26165.17400360  .00202026  00000+0  11364-2 0  9994
2 69187  53.1581 217.4824 0002074  35.3028 324.8131 15.78126613  4295
STARLINK-37359          
1 69188U 26114G   26165.17355799  .00221860  00000+0  12438-2 0  9990
2 69188  53.1583 217.4794 0001066 106.2758 253.8381 15.78141987  4291
